{
  "norad_id": 68851,
  "name": "STARLINK-37382",
  "history": [
    {
      "epoch": "2026-05-02T10:00:03.000096Z",
      "apogee_km": 274.1777851164925,
      "perigee_km": 272.4869815992415,
      "latitude_deg": -49.922233208933505,
      "longitude_deg": -62.95838767419791,
      "height_km": 293.44205969272525,
      "semi_major_axis_km": 6651.469383357867,
      "eccentricity": 0.0001271,
      "inclination_deg": 97.2819,
      "raan_deg": 136.0744,
      "arg_perigee_deg": 90.7887,
      "mean_anomaly_deg": 139.4082,
      "mean_motion_rev_day": 16.00391984
    }
  ]
}