{"fetched_at":"2026-05-03T06:27:58Z","count":17151,"tles":[{"name":"STARLINK-37382","line1":"1 68851U 26094N   26122.41670139 -.01720750  90083-3 -33507-2 0  9990","line2":"2 68851  97.2819 136.0744 0001271  90.7887 139.4082 16.00391984  2001","category":"Starlink"}]}